,epoch_mjd,a,e,i,om,w,ma,spkid,per_y,sigma_e,sigma_a,sigma_i,sigma_om,sigma_w,sigma_per,full_name,number_mp,designation
4855,59800,2.724,0.5246,4.41,295.61,88.84,267.67,3306658,4.5,2.7e-07,3.1e-08,2.2e-05,0.00016,0.00019,2.8e-05,       (2005 XY7),       (2005 XY7),
4856,53712,0.9686,0.3207,32.7,75.7,238.63,86.04,3306579,0.953,0.00041,0.00069,0.072,0.0004,0.097,0.37,       (2005 XZ7),       (2005 XZ7),
4857,59800,1.419,0.4372,5.34,254.02,111.35,341.85,3306580,1.69,0.00038,0.00076,0.012,0.062,0.065,0.5,       (2005 XA8),       (2005 XA8),
4858,53713,2.405,0.6341,0.3,215.58,169.5,10.14,3306659,3.73,0.0019,0.012,0.00059,0.054,0.051,10.0,       (2005 XN27),       (2005 XN27),
4859,59800,1.664,0.4431,1.2,296.96,188.47,256.14,3307058,2.15,6e-06,0.00086,0.011,0.5,0.43,0.61,       (2005 XO66),       (2005 XO66),
4860,59800,2.796,0.5814,2.92,214.95,274.46,189.73,3307059,4.67,1.3e-07,2.8e-08,7.4e-06,0.00013,0.00014,2.6e-05,       (2005 XP66),       (2005 XP66),
4861,59800,0.8412,0.2663,17.22,84.8,149.96,73.47,3307228,0.772,3e-07,1.6e-09,3.4e-05,1.2e-05,4.9e-05,7.8e-07,       (2005 XT77),       (2005 XT77),
4862,59800,1.616,0.3556,16.44,268.73,100.11,80.24,3307230,2.05,1e-07,6.5e-08,2.7e-05,2.5e-05,7.6e-05,4.5e-05,       (2005 XW77),       (2005 XW77),
4863,59800,1.527,0.3461,5.72,79.22,329.9,314.85,3307231,1.89,0.00047,0.0011,0.0068,0.0027,0.0056,0.74,       (2005 XX77),       (2005 XX77),
4864,59800,3.246,0.61,24.2,296.39,123.53,314.14,3308948,5.85,2.8e-07,9.4e-08,1.8e-05,2.6e-05,5.8e-05,9.3e-05,       (2005 YC),       (2005 YC),
4865,53727,1.653,0.4258,4.78,90.7,314.14,17.61,3308949,2.13,0.001,0.0028,0.0092,0.0019,0.0052,2.0,       (2005 YD),       (2005 YD),
4866,59800,1.062,0.3076,5.63,269.49,80.52,138.98,3308950,1.09,0.00045,0.00014,0.0019,0.051,0.056,0.076,       (2005 YK),       (2005 YK),
4867,59800,1.164,0.2522,8.34,84.04,279.23,145.81,3309089,1.26,0.00047,0.00039,0.015,0.0022,0.019,0.23,       (2005 YY1),       (2005 YY1),
4868,59800,1.771,0.363,36.42,276.95,85.72,63.32,3309090,2.36,7.1e-08,8.3e-09,2.8e-05,1.1e-05,3.2e-05,6.1e-06,       (2005 YN3),       (2005 YN3),
4869,59800,0.7595,0.3732,12.8,274.23,20.15,173.65,3309091,0.662,0.00064,0.00022,0.038,0.0088,0.0051,0.1,       (2005 YO3),       (2005 YO3),
4870,59800,0.8199,0.2735,3.28,75.27,217.98,299.52,3309092,0.742,1.4e-06,4.9e-06,7.3e-05,0.0015,0.00069,0.0024,       (2005 YR3),       (2005 YR3),
4871,59800,2.551,0.8416,3.02,2.47,341.51,39.14,3309093,4.07,7.7e-07,7.8e-07,1.3e-05,0.0013,0.0014,0.00068,       (2005 YU3),       (2005 YU3),
4872,53737,1.697,0.5293,17.37,56.47,298.21,32.12,3309286,2.21,0.00057,0.0023,0.0074,0.013,0.039,1.6,       (2005 YS8),       (2005 YS8),
4873,59800,2.552,0.5854,10.91,282.82,166.41,32.85,3309287,4.08,1.7e-05,0.00025,1.7e-05,0.00056,0.0029,0.22,       (2005 YT8),       (2005 YT8),
4874,53734,2.014,0.543,4.03,279.3,237.3,344.07,3309288,2.86,0.0011,0.0048,0.0068,0.0025,0.0024,3.8,       (2005 YU8),       (2005 YU8),
4875,59800,1.28,0.2278,2.24,93.06,88.76,104.17,3309476,1.45,1.1e-07,2.4e-09,9.9e-06,0.00014,0.00015,1.5e-06,       (2005 YA37),       (2005 YA37),
4876,59800,2.285,0.4361,6.95,105.03,268.03,329.98,3309693,3.45,3.7e-07,6.9e-08,2.1e-05,7.7e-05,0.00017,5.7e-05,       (2005 YP55),       (2005 YP55),
4877,59800,2.251,0.461,2.31,141.32,12.0,310.06,3309690,3.38,4.1e-07,6.3e-08,1.1e-05,0.00011,0.00024,5.2e-05,       (2005 YT55),       (2005 YT55),
4878,59800,2.643,0.5475,13.53,183.68,140.67,325.15,3309827,4.3,1e-07,4.8e-08,1.8e-05,0.00012,0.00012,4.3e-05,       (2005 YW93),       (2005 YW93),
4879,59800,1.355,0.4473,18.44,280.84,309.27,112.87,3309829,1.58,3.1e-07,2.1e-08,3.9e-05,3.7e-05,7.4e-05,1.3e-05,       (2005 YL128),       (2005 YL128),
4880,53737,1.656,0.441,2.57,285.0,117.59,21.8,3309831,2.13,0.0047,0.013,0.023,0.022,0.0064,9.3,       (2005 YN128),       (2005 YN128),
4881,59800,0.821,0.2966,15.59,281.73,328.41,344.87,3309832,0.744,0.00026,6.9e-05,0.021,0.00021,0.0041,0.034,       (2005 YO128),       (2005 YO128),
4882,59800,2.615,0.5714,27.23,294.02,115.17,347.96,3309856,4.23,0.00019,0.0011,0.0056,0.00043,0.0035,0.94,       (2005 YT128),       (2005 YT128),
4883,53735,0.7715,0.3223,7.75,100.78,189.95,159.56,3309857,0.678,0.00073,0.00035,0.024,0.00011,0.0032,0.17,       (2005 YU128),       (2005 YU128),
4884,59800,1.094,0.2206,7.41,277.57,273.37,117.06,3310464,1.14,1.5e-07,1.9e-09,1.9e-05,3.2e-05,7.8e-05,1.1e-06,       (2006 AN),       (2006 AN),
4885,59800,1.29,0.1417,11.67,280.5,232.86,82.15,3311263,1.46,0.00019,0.00048,0.016,0.0031,0.011,0.3,       (2006 AX),       (2006 AX),
4886,59800,2.407,0.4804,6.02,304.22,184.49,152.4,3311267,3.73,7.1e-08,6.9e-09,6.8e-06,3.9e-05,4.6e-05,5.9e-06,       (2006 AV2),       (2006 AV2),
4887,53741,1.717,0.4115,8.43,285.12,189.3,356.98,3311675,2.25,0.0011,0.0033,0.017,0.0021,0.0026,2.4,       (2006 AB3),       (2006 AB3),
4888,53745,2.348,0.5742,3.06,108.74,322.67,9.1,3311676,3.6,0.0025,0.014,0.01,0.0023,0.017,12.0,       (2006 AC3),       (2006 AC3),
4889,59800,1.722,0.3727,9.99,289.71,172.47,125.28,3311863,2.26,0.00055,0.0018,0.013,0.0035,0.015,1.3,       (2006 AP3),       (2006 AP3),
4890,59800,2.456,0.6338,22.78,290.04,269.72,94.55,3311864,3.85,1.6e-05,0.0001,0.00057,0.0008,0.00076,0.089,       (2006 AQ3),       (2006 AQ3),
4891,59800,2.47,0.6361,4.71,12.33,40.78,115.86,3311865,3.88,3.9e-07,4.1e-07,4.6e-05,0.00056,0.00046,0.00036,       (2006 AR3),       (2006 AR3),
4892,53743,1.337,0.3293,13.41,289.29,245.36,324.01,3311866,1.55,0.0007,0.0012,0.024,0.00029,0.0093,0.79,       (2006 AS3),       (2006 AS3),
4893,53744,2.286,0.5324,14.78,288.23,178.74,0.43,3311867,3.46,0.0019,0.0096,0.034,0.00025,0.00076,7.9,       (2006 AT3),       (2006 AT3),
4894,59800,2.272,0.5617,1.42,114.66,0.1,307.4,3311868,3.42,0.00072,0.0027,0.00073,0.2,0.22,2.2,       (2006 AU3),       (2006 AU3),
4895,53749,2.297,0.5507,6.71,296.14,132.23,11.89,3311958,3.48,0.00098,0.0051,0.0095,0.00014,0.0058,4.3,       (2006 AF4),       (2006 AF4),
4896,59800,2.555,0.5212,5.63,107.32,340.2,31.81,3311959,4.08,0.00052,0.0058,0.0043,0.016,0.086,5.1,       (2006 AG4),       (2006 AG4),
4897,53744,1.925,0.4719,0.67,279.31,208.68,353.95,3311960,2.67,0.0027,0.01,0.0031,0.0016,0.013,7.9,       (2006 AH4),       (2006 AH4),
4898,59800,1.465,0.1174,18.45,115.02,256.28,217.32,3311961,1.77,6.6e-08,4.3e-09,7.6e-06,1.5e-05,3.2e-05,2.8e-06,       (2006 AJ4),       (2006 AJ4),
4899,59800,2.651,0.6304,8.53,298.26,115.13,313.74,3311962,4.32,0.00096,0.0055,0.012,0.047,0.048,4.9,       (2006 AK4),       (2006 AK4),
4900,59800,2.508,0.5933,2.76,102.87,28.48,48.72,3311963,3.97,2.7e-08,1e-08,1.3e-05,6.2e-05,7.9e-05,8.7e-06,       (2006 AL4),       (2006 AL4),
4901,59800,0.9822,0.6491,4.14,123.19,139.79,286.87,3311964,0.973,9.1e-08,1e-08,1.6e-05,3.1e-05,3.3e-05,5.7e-06,       (2006 AM4),       (2006 AM4),
4902,59800,2.005,0.4723,9.57,119.55,53.52,278.75,3311965,2.84,6.8e-08,1.3e-07,1.3e-05,3.3e-05,5e-05,0.0001,       (2006 AN4),       (2006 AN4),
4903,59800,3.335,0.8878,35.86,311.99,65.85,267.59,3312034,6.09,1.1e-07,4.4e-08,5.1e-05,9e-06,3.9e-05,4.4e-05,       (2006 AL8),       (2006 AL8),
4904,59800,1.87,0.795,10.17,57.09,188.55,143.12,3312035,2.56,9.5e-08,1.5e-08,1.5e-05,7.6e-05,8.4e-05,1.1e-05,       (2006 AM8),       (2006 AM8),
4905,53745,1.496,0.226,3.71,303.0,173.73,356.15,3312036,1.83,0.0061,0.02,0.23,0.75,15.0,14.0,       (2006 AN8),       (2006 AN8),
4906,59800,2.477,0.5678,8.7,108.53,1.19,82.8,3312420,3.9,0.00022,0.00084,0.0024,0.0016,0.0079,0.72,       (2006 AW44),       (2006 AW44),
4907,59800,1.577,0.3018,2.29,111.1,22.71,119.47,3312421,1.98,0.00011,0.00032,0.00069,0.0047,0.00052,0.22,       (2006 AX44),       (2006 AX44),
4908,59800,1.12,0.218,3.55,298.49,250.76,295.8,3313157,1.19,0.00012,8.4e-05,0.0033,0.00078,0.00072,0.049,       (2006 BA),       (2006 BA),
4909,59800,1.406,0.8272,18.1,320.81,281.45,306.31,3313180,1.67,3.4e-07,4.2e-09,3.6e-05,9.6e-05,9.4e-05,2.7e-06,       (2006 BC),       (2006 BC),
4910,53758,1.472,0.391,5.01,101.89,322.09,26.28,3313220,1.79,0.00077,0.0016,0.0078,0.0043,0.0031,1.1,       (2006 BF),       (2006 BF),
4911,59800,2.87,0.647,9.46,294.71,152.72,147.7,3313555,4.86,0.00032,0.002,0.0028,0.0037,0.0046,1.9,       (2006 BO6),       (2006 BO6),
4912,59800,2.397,0.596,18.68,106.56,89.14,148.88,3313556,3.71,9.2e-06,8.4e-05,0.00038,0.00057,0.00047,0.071,       (2006 BP6),       (2006 BP6),
4913,59800,1.436,0.4035,0.34,294.55,248.23,195.28,3313558,1.72,0.00056,0.001,0.0027,0.043,0.054,0.68,       (2006 BO7),       (2006 BO7),
4914,53762,2.33,0.5845,4.81,327.4,109.66,11.56,3313559,3.56,0.00088,0.0049,0.0065,0.0041,0.0017,4.1,       (2006 BP7),       (2006 BP7),
4915,53759,1.347,0.2572,4.97,302.14,155.06,15.69,3313560,1.56,0.00088,0.0017,0.015,0.0013,0.0051,1.1,       (2006 BQ7),       (2006 BQ7),
4916,59800,1.176,0.1078,8.24,121.79,348.63,3.29,3313729,1.27,0.0002,0.00044,0.021,0.018,0.18,0.26,       (2006 BU7),       (2006 BU7),
4917,53760,1.479,0.4099,1.37,305.49,116.95,26.98,3313730,1.8,0.0018,0.0038,0.0052,0.0012,0.013,2.5,       (2006 BW7),       (2006 BW7),
4918,59800,1.139,0.282,4.9,313.25,77.55,276.15,3313726,1.22,0.0007,0.00054,0.014,0.011,0.016,0.32,       (2006 BX7),       (2006 BX7),
4919,53759,1.874,0.4546,3.17,302.82,162.22,6.62,3313731,2.57,0.0012,0.0044,0.0068,0.0017,0.0072,3.3,       (2006 BY7),       (2006 BY7),
4920,53763,1.838,0.3688,9.29,305.03,177.31,2.99,3313732,2.49,0.0013,0.0047,0.027,0.005,0.0061,3.5,       (2006 BA8),       (2006 BA8),
4921,53762,1.639,0.4408,7.34,121.6,312.95,20.95,3313734,2.1,0.00093,0.0025,0.013,0.0039,0.0072,1.8,       (2006 BB8),       (2006 BB8),
4922,59800,1.227,0.4315,6.89,303.28,91.23,103.61,3313733,1.36,0.00035,0.00034,0.0066,0.0031,0.0033,0.21,       (2006 BC8),       (2006 BC8),
4923,53761,1.122,0.2982,12.23,121.28,92.23,305.26,3313735,1.19,0.00081,0.00078,0.033,0.00037,0.014,0.45,       (2006 BL8),       (2006 BL8),
